[{"OBJECT_NAME":"LYNK TOWER 6","OBJECT_ID":"2024-043AB","EPOCH":"2026-03-09T21:28:38.303328","MEAN_MOTION":15.29548678,"ECCENTRICITY":0.00097492,"INCLINATION":97.5426,"RA_OF_ASC_NODE":204.1954,"ARG_OF_PERICENTER":232.0253,"MEAN_ANOMALY":128.0107,"EPHEMERIS_TYPE":0,"CLASSIFICATION_TYPE":"U","NORAD_CAT_ID":59123,"ELEMENT_SET_NO":999,"REV_AT_EPOCH":11184,"BSTAR":0.00040142146,"MEAN_MOTION_DOT":0.0001144,"MEAN_MOTION_DDOT":0},{"OBJECT_NAME":"STARLINK-33717","OBJECT_ID":"2025-083Q","EPOCH":"2026-03-09T06:12:46.435392","MEAN_MOTION":15.27664986,"ECCENTRICITY":0.00020518,"INCLINATION":43.0011,"RA_OF_ASC_NODE":7.414,"ARG_OF_PERICENTER":263.1634,"MEAN_ANOMALY":96.8984,"EPHEMERIS_TYPE":0,"CLASSIFICATION_TYPE":"U","NORAD_CAT_ID":63648,"ELEMENT_SET_NO":999,"REV_AT_EPOCH":5000,"BSTAR":0.0016466494,"MEAN_MOTION_DOT":0.00045449,"MEAN_MOTION_DDOT":0}]
